STARLINK-37431          
1 68812U 26089L   26117.60109139 -.00839182  24467-3 -14073-2 0  9992
2 68812  97.2858 322.7571 0003018 123.0645 237.0925 16.02849789   727
