{
  "norad_id": 68812,
  "name": "STARLINK-37431",
  "history": [
    {
      "epoch": "2026-04-27T14:25:34.296096Z",
      "apogee_km": 268.5364432900287,
      "perigee_km": 264.52572163545483,
      "latitude_deg": -9.10350641311099e-06,
      "longitude_deg": -109.2243639598965,
      "height_km": 270.82655269096597,
      "semi_major_axis_km": 6644.668082462742,
      "eccentricity": 0.0003018,
      "inclination_deg": 97.2858,
      "raan_deg": 322.7571,
      "arg_perigee_deg": 123.0645,
      "mean_anomaly_deg": 237.0925,
      "mean_motion_rev_day": 16.02849789
    }
  ]
}